{
  "type": "FeatureCollection",
  "features": [
    {
      "type": "Feature",
      "properties": {
        "norad_id": 30641,
        "name": "FENGYUN 1C DEB",
        "group": "fengyun-1c-debris",
        "lat": -69.98045589888869,
        "lon": -53.32570602677178,
        "alt_km": 730.1734226330345,
        "timestamp": "2025-12-12T16:50:33.422407+00:00",
        "meta_object_name": "FENGYUN 1C DEB",
        "meta_object_id": "1999-025ANY",
        "meta_epoch": "2025-12-11T18:34:54.477696",
        "meta_mean_motion": 14.78949286,
        "meta_eccentricity": 0.01361893,
        "meta_inclination": 98.9413,
        "meta_ra_of_asc_node": 280.0427,
        "meta_arg_of_pericenter": 129.6242,
        "meta_mean_anomaly": 262.3989,
        "meta_ephemeris_type": 0,
        "meta_classification_type": "U",
        "meta_norad_cat_id": 30641,
        "meta_element_set_no": 999,
        "meta_rev_at_epoch": 518,
        "meta_bstar": 0.00078379483,
        "meta_mean_motion_dot": 6.697e-05,
        "meta_mean_motion_ddot": 0,
        "tle_line1": "1 30641U 99025ANY 25345.77424164  .00006697  00000+0  78379-3 0  9997",
        "tle_line2": "2 30641  98.9413 280.0427 0136189 129.6242 262.3989 14.78949286  5188"
      },
      "geometry": {
        "type": "Point",
        "coordinates": [
          -53.32570602677178,
          -69.98045589888869
        ]
      }
    },
    {
      "type": "Feature",
      "properties": {
        "norad_id": 30646,
        "name": "FENGYUN 1C DEB",
        "group": "fengyun-1c-debris",
        "lat": 34.68808632899517,
        "lon": 1.1934150646932613,
        "alt_km": 823.3098069758535,
        "timestamp": "2025-12-12T16:50:33.422417+00:00",
        "meta_object_name": "FENGYUN 1C DEB",
        "meta_object_id": "1999-025APD",
        "meta_epoch": "2025-12-11T23:38:34.887264",
        "meta_mean_motion": 14.09649793,
        "meta_eccentricity": 0.0048286,
        "meta_inclination": 98.652,
        "meta_ra_of_asc_node": 6.5539,
        "meta_arg_of_pericenter": 34.3062,
        "meta_mean_anomaly": 326.1212,
        "meta_ephemeris_type": 0,
        "meta_classification_type": "U",
        "meta_norad_cat_id": 30646,
        "meta_element_set_no": 999,
        "meta_rev_at_epoch": 96594,
        "meta_bstar": 0.0010329,
        "meta_mean_motion_dot": 1.788e-05,
        "meta_mean_motion_ddot": 0,
        "tle_line1": "1 30646U 99025APD 25345.98512601  .00001788  00000+0  10329-2 0  9995",
        "tle_line2": "2 30646  98.6520   6.5539 0048286  34.3062 326.1212 14.09649793965947"
      },
      "geometry": {
        "type": "Point",
        "coordinates": [
          1.1934150646932613,
          34.68808632899517
        ]
      }
    },
    {
      "type": "Feature",
      "properties": {
        "norad_id": 30647,
        "name": "FENGYUN 1C DEB",
        "group": "fengyun-1c-debris",
        "lat": 51.26354442121834,
        "lon": 110.1221444811871,
        "alt_km": 685.5561169224429,
        "timestamp": "2025-12-12T16:50:33.422427+00:00",
        "meta_object_name": "FENGYUN 1C DEB",
        "meta_object_id": "1999-025APE",
        "meta_epoch": "2025-12-11T18:57:04.275648",
        "meta_mean_motion": 14.56448022,
        "meta_eccentricity": 0.00291516,
        "meta_inclination": 98.9886,
        "meta_ra_of_asc_node": 277.7597,
        "meta_arg_of_pericenter": 177.009,
        "meta_mean_anomaly": 211.1616,
        "meta_ephemeris_type": 0,
        "meta_classification_type": "U",
        "meta_norad_cat_id": 30647,
        "meta_element_set_no": 999,
        "meta_rev_at_epoch": 97975,
        "meta_bstar": 0.0035179044,
        "meta_mean_motion_dot": 0.000157,
        "meta_mean_motion_ddot": 0,
        "tle_line1": "1 30647U 99025APE 25345.78963282  .00015700  00000+0  35179-2 0  9998",
        "tle_line2": "2 30647  98.9886 277.7597 0029151 177.0090 211.1616 14.56448022979757"
      },
      "geometry": {
        "type": "Point",
        "coordinates": [
          110.1221444811871,
          51.26354442121834
        ]
      }
    },
    {
      "type": "Feature",
      "properties": {
        "norad_id": 30648,
        "name": "FENGYUN 1C DEB",
        "group": "fengyun-1c-debris",
        "lat": -78.91403585588938,
        "lon": 132.26067719908704,
        "alt_km": 760.1311709152496,
        "timestamp": "2025-12-12T16:50:33.422438+00:00",
        "meta_object_name": "FENGYUN 1C DEB",
        "meta_object_id": "1999-025APF",
        "meta_epoch": "2025-12-11T18:42:45.503712",
        "meta_mean_motion": 14.48097618,
        "meta_eccentricity": 0.00344594,
        "meta_inclination": 98.641,
        "meta_ra_of_asc_node": 80.4135,
        "meta_arg_of_pericenter": 130.5822,
        "meta_mean_anomaly": 21.986,
        "meta_ephemeris_type": 0,
        "meta_classification_type": "U",
        "meta_norad_cat_id": 30648,
        "meta_element_set_no": 999,
        "meta_rev_at_epoch": 97852,
        "meta_bstar": 0.0035122445,
        "meta_mean_motion_dot": 0.00013144,
        "meta_mean_motion_ddot": 0,
        "tle_line1": "1 30648U 99025APF 25345.77969333  .00013144  00000+0  35122-2 0  9999",
        "tle_line2": "2 30648  98.6410  80.4135 0034459 130.5822  21.9860 14.48097618978523"
      },
      "geometry": {
        "type": "Point",
        "coordinates": [
          132.26067719908704,
          -78.91403585588938
        ]
      }
    },
    {
      "type": "Feature",
      "properties": {
        "norad_id": 30649,
        "name": "FENGYUN 1C DEB",
        "group": "fengyun-1c-debris",
        "lat": 67.73687171872255,
        "lon": 59.75250352459291,
        "alt_km": 794.0395275751898,
        "timestamp": "2025-12-12T16:50:33.422448+00:00",
        "meta_object_name": "FENGYUN 1C DEB",
        "meta_object_id": "1999-025APG",
        "meta_epoch": "2025-12-12T04:53:32.523360",
        "meta_mean_motion": 14.29522733,
        "meta_eccentricity": 0.00513514,
        "meta_inclination": 98.8086,
        "meta_ra_of_asc_node": 81.5069,
        "meta_arg_of_pericenter": 172.7845,
        "meta_mean_anomaly": 216.2757,
        "meta_ephemeris_type": 0,
        "meta_classification_type": "U",
        "meta_norad_cat_id": 30649,
        "meta_element_set_no": 999,
        "meta_rev_at_epoch": 97056,
        "meta_bstar": 0.0031001304,
        "meta_mean_motion_dot": 8e-05,
        "meta_mean_motion_ddot": 0,
        "tle_line1": "1 30649U 99025APG 25346.20384865  .00008000  00000+0  31001-2 0  9997",
        "tle_line2": "2 30649  98.8086  81.5069 0051351 172.7845 216.2757 14.29522733970566"
      },
      "geometry": {
        "type": "Point",
        "coordinates": [
          59.75250352459291,
          67.73687171872255
        ]
      }
    },
    {
      "type": "Feature",
      "properties": {
        "norad_id": 30650,
        "name": "FENGYUN 1C DEB",
        "group": "fengyun-1c-debris",
        "lat": 67.5098577888566,
        "lon": 4.232156527182751,
        "alt_km": 865.3332424724704,
        "timestamp": "2025-12-12T16:50:33.422458+00:00",
        "meta_object_name": "FENGYUN 1C DEB",
        "meta_object_id": "1999-025APH",
        "meta_epoch": "2025-12-12T01:22:10.167168",
        "meta_mean_motion": 14.13928932,
        "meta_eccentricity": 0.007221,
        "meta_inclination": 99.2045,
        "meta_ra_of_asc_node": 26.6258,
        "meta_arg_of_pericenter": 191.5082,
        "meta_mean_anomaly": 198.757,
        "meta_ephemeris_type": 0,
        "meta_classification_type": "U",
        "meta_norad_cat_id": 30650,
        "meta_element_set_no": 999,
        "meta_rev_at_epoch": 96289,
        "meta_bstar": 0.0024164565,
        "meta_mean_motion_dot": 4.656e-05,
        "meta_mean_motion_ddot": 0,
        "tle_line1": "1 30650U 99025APH 25346.05706212  .00004656  00000+0  24165-2 0  9992",
        "tle_line2": "2 30650  99.2045  26.6258 0072210 191.5082 198.7570 14.13928932962895"
      },
      "geometry": {
        "type": "Point",
        "coordinates": [
          4.232156527182751,
          67.5098577888566
        ]
      }
    },
    {
      "type": "Feature",
      "properties": {
        "norad_id": 30652,
        "name": "FENGYUN 1C DEB",
        "group": "fengyun-1c-debris",
        "lat": 45.82823631576363,
        "lon": -151.00502512736003,
        "alt_km": 866.4107890653804,
        "timestamp": "2025-12-12T16:50:33.422468+00:00",
        "meta_object_name": "FENGYUN 1C DEB",
        "meta_object_id": "1999-025APJ",
        "meta_epoch": "2025-12-12T01:00:02.206080",
        "meta_mean_motion": 14.0780437,
        "meta_eccentricity": 0.0007312,
        "meta_inclination": 98.7853,
        "meta_ra_of_asc_node": 19.1936,
        "meta_arg_of_pericenter": 267.3307,
        "meta_mean_anomaly": 122.6155,
        "meta_ephemeris_type": 0,
        "meta_classification_type": "U",
        "meta_norad_cat_id": 30652,
        "meta_element_set_no": 999,
        "meta_rev_at_epoch": 96684,
        "meta_bstar": 0.00020248,
        "meta_mean_motion_dot": 3e-06,
        "meta_mean_motion_ddot": 0,
        "tle_line1": "1 30652U 99025APJ 25346.04169220  .00000300  00000+0  20248-3 0  9996",
        "tle_line2": "2 30652  98.7853  19.1936 0007312 267.3307 122.6155 14.07804370966847"
      },
      "geometry": {
        "type": "Point",
        "coordinates": [
          -151.00502512736003,
          45.82823631576363
        ]
      }
    }
  ]
}